ONEWEB-0233             
1 48795U 21045AE  26017.80560574  .00000111  00000+0  26171-3 0  9998
2 48795  87.9005 289.2588 0001282  70.3699 289.7570 13.15548843224528
ONEWEB-0190             
1 48796U 21045AF  26017.71700278 -.00000022  00000+0 -92753-4 0  9999
2 48796  87.9004 289.2375 0001219  47.1567 312.9665 13.15547036224581
ONEWEB-0236             
1 48797U 21045AG  26017.81049730  .00000134  00000+0  32201-3 0  9993
2 48797  87.9003 289.2308 0001616  78.7820 281.3492 13.15548984224489
ONEWEB-0248             
1 48798U 21045AH  26017.97529133  .00000175  00000+0  43100-3 0  9996
2 48798  87.9017 289.1656 0000990  70.9138 289.2099 13.15549716224664
ONEWEB-0225             
1 48799U 21045AJ  26017.99747793 -.00000050  00000+0 -16727-3 0  9992
2 48799  87.9005 289.1816 0001268  53.1757 306.9490 13.15548792224675
ONEWEB-0215             
1 48800U 21045AK  26017.73919579  .00000168  00000+0  41342-3 0  9999
2 48800  87.9020 289.1994 0001050  52.8185 307.3041 13.15548817224510
ONEWEB-0216             
1 48801U 21045AL  26017.97687355  .00000075  00000+0  16500-3 0  9995
2 48801  87.9009 289.1779 0001677  68.6867 291.4442 13.15549122224558
ONEWEB-0239             
1 48802U 21045AM  26017.98162076  .00000030  00000+0  46313-4 0  9992
2 48802  87.9008 289.1912 0000798  54.9092 305.2113 13.15546903224595
